{
  "type": "FeatureCollection",
  "features": [
    {
      "type": "Feature",
      "properties": {
        "norad_id": 66554,
        "name": "GLOBAL-33",
        "group": "last-30-days",
        "lat": -28.425187754166142,
        "lon": -80.5836727364531,
        "alt_km": 476.5155270453006,
        "timestamp": "2025-12-11T18:59:44.810391+00:00",
        "meta_object_name": "GLOBAL-33",
        "meta_object_id": "2025-267A",
        "meta_epoch": "2025-12-11T05:29:47.657184",
        "meta_mean_motion": 15.31596079,
        "meta_eccentricity": 0.00044349,
        "meta_inclination": 42.021,
        "meta_ra_of_asc_node": 65.7147,
        "meta_arg_of_pericenter": 43.1565,
        "meta_mean_anomaly": 316.9619,
        "meta_ephemeris_type": 0,
        "meta_classification_type": "U",
        "meta_norad_cat_id": 66554,
        "meta_element_set_no": 999,
        "meta_rev_at_epoch": 317,
        "meta_bstar": 0.00061052642,
        "meta_mean_motion_dot": 0.00018831,
        "meta_mean_motion_ddot": 0,
        "tle_line1": "1 66554U 25267A   25345.22902381  .00018831  00000+0  61053-3 0  9992",
        "tle_line2": "2 66554  42.0210  65.7147 0004434  43.1565 316.9619 15.31596079  3178"
      },
      "geometry": {
        "type": "Point",
        "coordinates": [
          -80.5836727364531,
          -28.425187754166142
        ]
      }
    },
    {
      "type": "Feature",
      "properties": {
        "norad_id": 66555,
        "name": "ELECTRON KICK STAGE R/B",
        "group": "last-30-days",
        "lat": -39.9072360708966,
        "lon": -5.942910433524098,
        "alt_km": 472.8968475156262,
        "timestamp": "2025-12-11T18:59:44.810401+00:00",
        "meta_object_name": "ELECTRON KICK STAGE R/B",
        "meta_object_id": "2025-267B",
        "meta_epoch": "2025-12-11T06:48:14.485536",
        "meta_mean_motion": 15.32700314,
        "meta_eccentricity": 0.00065912,
        "meta_inclination": 42.0194,
        "meta_ra_of_asc_node": 65.2562,
        "meta_arg_of_pericenter": 41.3724,
        "meta_mean_anomaly": 318.7612,
        "meta_ephemeris_type": 0,
        "meta_classification_type": "U",
        "meta_norad_cat_id": 66555,
        "meta_element_set_no": 999,
        "meta_rev_at_epoch": 318,
        "meta_bstar": 0.0013714431,
        "meta_mean_motion_dot": 0.00044292,
        "meta_mean_motion_ddot": 0,
        "tle_line1": "1 66555U 25267B   25345.28350099  .00044292  00000+0  13714-2 0  9992",
        "tle_line2": "2 66555  42.0194  65.2562 0006591  41.3724 318.7612 15.32700314  3183"
      },
      "geometry": {
        "type": "Point",
        "coordinates": [
          -5.942910433524098,
          -39.9072360708966
        ]
      }
    },
    {
      "type": "Feature",
      "properties": {
        "norad_id": 66557,
        "name": "STARLINK-35699",
        "group": "last-30-days",
        "lat": -13.041763727916772,
        "lon": -38.86541423420358,
        "alt_km": 415.50237080983334,
        "timestamp": "2025-12-11T18:59:44.810414+00:00",
        "meta_object_name": "STARLINK-35699",
        "meta_object_id": "2025-268A",
        "meta_epoch": "2025-12-11T06:00:02.999808",
        "meta_mean_motion": 15.50618062,
        "meta_eccentricity": 0.00019922,
        "meta_inclination": 43.0001,
        "meta_ra_of_asc_node": 129.9094,
        "meta_arg_of_pericenter": 256.9229,
        "meta_mean_anomaly": 156.1692,
        "meta_ephemeris_type": 0,
        "meta_classification_type": "U",
        "meta_norad_cat_id": 66557,
        "meta_element_set_no": 999,
        "meta_rev_at_epoch": 442,
        "meta_bstar": 0.00035474274,
        "meta_mean_motion_dot": 0.00020553,
        "meta_mean_motion_ddot": 0,
        "tle_line1": "1 66557U 25268A   25345.25003472  .00020553  00000+0  35474-3 0  9994",
        "tle_line2": "2 66557  43.0001 129.9094 0001992 256.9229 156.1692 15.50618062  4423"
      },
      "geometry": {
        "type": "Point",
        "coordinates": [
          -38.86541423420358,
          -13.041763727916772
        ]
      }
    },
    {
      "type": "Feature",
      "properties": {
        "norad_id": 66558,
        "name": "STARLINK-35695",
        "group": "last-30-days",
        "lat": -14.134162694237132,
        "lon": -37.58447290538843,
        "alt_km": 415.1714501349934,
        "timestamp": "2025-12-11T18:59:44.810427+00:00",
        "meta_object_name": "STARLINK-35695",
        "meta_object_id": "2025-268B",
        "meta_epoch": "2025-12-11T06:00:02.999808",
        "meta_mean_motion": 15.5050985,
        "meta_eccentricity": 0.00038829,
        "meta_inclination": 43.0002,
        "meta_ra_of_asc_node": 129.9051,
        "meta_arg_of_pericenter": 256.6549,
        "meta_mean_anomaly": 158.3048,
        "meta_ephemeris_type": 0,
        "meta_classification_type": "U",
        "meta_norad_cat_id": 66558,
        "meta_element_set_no": 999,
        "meta_rev_at_epoch": 442,
        "meta_bstar": 0.0007118395,
        "meta_mean_motion_dot": 0.00041546,
        "meta_mean_motion_ddot": 0,
        "tle_line1": "1 66558U 25268B   25345.25003472  .00041546  00000+0  71184-3 0  9998",
        "tle_line2": "2 66558  43.0002 129.9051 0003882 256.6549 158.3048 15.50509850  4423"
      },
      "geometry": {
        "type": "Point",
        "coordinates": [
          -37.58447290538843,
          -14.134162694237132
        ]
      }
    },
    {
      "type": "Feature",
      "properties": {
        "norad_id": 66559,
        "name": "STARLINK-35419",
        "group": "last-30-days",
        "lat": -15.456158448613467,
        "lon": -36.006074720062756,
        "alt_km": 416.2610941495104,
        "timestamp": "2025-12-11T18:59:44.810437+00:00",
        "meta_object_name": "STARLINK-35419",
        "meta_object_id": "2025-268C",
        "meta_epoch": "2025-12-11T06:00:02.999808",
        "meta_mean_motion": 15.50605812,
        "meta_eccentricity": 0.00017832,
        "meta_inclination": 43.0001,
        "meta_ra_of_asc_node": 129.9009,
        "meta_arg_of_pericenter": 267.2845,
        "meta_mean_anomaly": 149.612,
        "meta_ephemeris_type": 0,
        "meta_classification_type": "U",
        "meta_norad_cat_id": 66559,
        "meta_element_set_no": 999,
        "meta_rev_at_epoch": 442,
        "meta_bstar": -0.0012308578,
        "meta_mean_motion_dot": -0.00071961,
        "meta_mean_motion_ddot": 0,
        "tle_line1": "1 66559U 25268C   25345.25003472 -.00071961  00000+0 -12309-2 0  9998",
        "tle_line2": "2 66559  43.0001 129.9009 0001783 267.2845 149.6120 15.50605812  4420"
      },
      "geometry": {
        "type": "Point",
        "coordinates": [
          -36.006074720062756,
          -15.456158448613467
        ]
      }
    },
    {
      "type": "Feature",
      "properties": {
        "norad_id": 66560,
        "name": "STARLINK-35411",
        "group": "last-30-days",
        "lat": -16.708521582388695,
        "lon": -34.479621165933196,
        "alt_km": 416.5177442136537,
        "timestamp": "2025-12-11T18:59:44.810448+00:00",
        "meta_object_name": "STARLINK-35411",
        "meta_object_id": "2025-268D",
        "meta_epoch": "2025-12-11T06:00:02.999808",
        "meta_mean_motion": 15.50645007,
        "meta_eccentricity": 0.00017241,
        "meta_inclination": 43.0001,
        "meta_ra_of_asc_node": 129.8965,
        "meta_arg_of_pericenter": 273.8564,
        "meta_mean_anomaly": 144.9461,
        "meta_ephemeris_type": 0,
        "meta_classification_type": "U",
        "meta_norad_cat_id": 66560,
        "meta_element_set_no": 999,
        "meta_rev_at_epoch": 442,
        "meta_bstar": -0.0020310915,
        "meta_mean_motion_dot": -0.00117998,
        "meta_mean_motion_ddot": 0,
        "tle_line1": "1 66560U 25268D   25345.25003472 -.00117998  00000+0 -20311-2 0  9993",
        "tle_line2": "2 66560  43.0001 129.8965 0001724 273.8564 144.9461 15.50645007  4424"
      },
      "geometry": {
        "type": "Point",
        "coordinates": [
          -34.479621165933196,
          -16.708521582388695
        ]
      }
    },
    {
      "type": "Feature",
      "properties": {
        "norad_id": 66561,
        "name": "STARLINK-35305",
        "group": "last-30-days",
        "lat": -19.145818540879436,
        "lon": -31.40727446991905,
        "alt_km": 416.47406376361505,
        "timestamp": "2025-12-11T18:59:44.810458+00:00",
        "meta_object_name": "STARLINK-35305",
        "meta_object_id": "2025-268E",
        "meta_epoch": "2025-12-11T06:00:02.999808",
        "meta_mean_motion": 15.50595045,
        "meta_eccentricity": 0.00017099,
        "meta_inclination": 43.0001,
        "meta_ra_of_asc_node": 129.8865,
        "meta_arg_of_pericenter": 265.7592,
        "meta_mean_anomaly": 156.8892,
        "meta_ephemeris_type": 0,
        "meta_classification_type": "U",
        "meta_norad_cat_id": 66561,
        "meta_element_set_no": 999,
        "meta_rev_at_epoch": 438,
        "meta_bstar": -0.00098156861,
        "meta_mean_motion_dot": -0.00057538,
        "meta_mean_motion_ddot": 0,
        "tle_line1": "1 66561U 25268E   25345.25003472 -.00057538  00000+0 -98157-3 0  9991",
        "tle_line2": "2 66561  43.0001 129.8865 0001709 265.7592 156.8892 15.50595045  4389"
      },
      "geometry": {
        "type": "Point",
        "coordinates": [
          -31.40727446991905,
          -19.145818540879436
        ]
      }
    }
  ]
}